EUTELSAT QUANTUM        
1 49056U 21069B   26026.43754492  .00000138  00000+0  00000+0 0  9996
2 49056   0.0123  49.4086 0003367 255.4905  26.0318  1.00272242 16504
EUTELSAT KONNECT VHTS   
1 53765U 22110A   26026.34211280  .00000029  00000+0  00000+0 0  9998
2 53765   0.0575  99.1564 0003148 177.2043 335.1103  1.00268367  5418
EUTELSAT HOTBIRD 13F    
1 54048U 22134A   26026.01086429  .00000100  00000+0  00000+0 0  9998
2 54048   0.0580 279.1555 0002178  78.9336 144.1055  1.00271394 11957
EUTELSAT HOTBIRD 13G    
1 54225U 22146A   26026.35937115  .00000099  00000+0  00000+0 0  9999
2 54225   0.0528 242.9784 0001946 304.7901  80.2299  1.00270515  6046
EUTELSAT 10B            
1 54259U 22157A   26026.35876447  .00000080  00000+0  00000+0 0  9998
2 54259   0.0578  97.1199 0000817  59.1374 108.5406  1.00267276 11601
EUTELSAT 36D            
1 59346U 24059A   26026.29255076  .00000168  00000+0  00000+0 0  9992
2 59346   0.0161  81.4341 0000477 205.9611 339.3596  1.00270346  6726
